#dP2019  3 21  0  0  0.00000000     288   u+U IGS14 FIT  GFZ                    
## 2045 345600.00000000   300.00000000 58563 0.0000000000000                    
+   93   C02C03C04C05C06C07C08C09C10C11C12C13C14C16E01E02E03                    
+        E04E05E07E08E09E11E12E13E15E18E19E21E24E25E26E27E30                    
+        E31E33E36G01G02G03G05G06G07G08G09G10G11G12G13G14G15                    
+        G16G17G18G19G20G21G22G23G24G25G26G27G28G29G30G31G32                    
+        J01J02J03J07R01R02R03R04R05R07R08R09R10R11R13R14R15                    
+        R16R17R18R20R21R22R23R24 00 00 00 00 00 00 00 00 00                    
++        10 10 10  7  6 10  6  5  5  5 10  8 10 10  7  6  7                    
++         6  8  6  8  6  5  7  0  7  5  5  6  7  5  6  5  6                    
++         5  7  0  7  5  7  6  5  6  5  5  8  8  6  5  8  5                    
++         9  5  7  8  6  6  6  6  5  7  5  7  6  5  5  6 10                    
++        10 10 10 10  6  7  9  9 10  8  6  8  6  6  7  5  8                    
++         5  5  7  5  6  6 10  6  6  6  6  6  6  6  6  6  6                    
%c M  cc GPS ccc cccc cccc cccc cccc ccccc ccccc ccccc ccccc                    
%c cc cc ccc ccc cccc cccc cccc cccc ccccc ccccc ccccc ccccc                    
%f  1.2500000  1.025000000  0.00000000000  0.000000000000000                    
%f  0.0000000  0.000000000  0.00000000000  0.000000000000000                    
%i    0    0    0    0      0      0      0      0         0                    
%i    0    0    0    0      0      0      0      0         0                    
/* PCV:IGS14_2038 OL/AL:FES2004  NONE     YN CLK:CoN ORB:CoN                    
/*     GeoForschungsZentrum Potsdam                                             
/*                                                                              
/*                                                                              
*  2019  3 21 21 35  0.00000000                                                 
PC02   4447.514018  41919.924374    749.990049   -391.517952                    
PC03 -14745.912644  39539.470343   -380.324698    -16.448847                    
PC04 -39620.714208  14391.407906   -655.164653     22.912552                    
PC05  21870.171855  36058.302742   1062.125722   -146.078396                    
PC06  -7901.753173  25558.647485  32977.554105    564.636343                    
PC07 -23126.638230  26876.694285 -23003.262999     84.785433                    
PC08 -15342.479216  37767.010969 -10100.337837    132.970970                    
PC09   5682.298380  33099.205548  25902.607612    623.818149                    
PC10  -9751.473241  28039.234299 -29938.944220   -594.462184                    
PC11  17204.111813  13083.732791  17679.582117    -62.400555                    
PC12   4789.699633  26427.485029  -7362.907478    510.964859                    
PC13  -6541.921203  41344.075666   3912.383066   -606.712645                    
PC14  20763.218073  12873.240709  13595.025890    742.967506                    
PC16  -3522.884981  27398.792347  31914.311166   -408.096267                    
PE01 -11908.521181 -11817.069504  24380.754589   -567.050476                    
PE02  11969.536974  11783.124626 -24380.171665     52.487264                    
PE03  20464.584872  19648.255745   8426.161179   -146.474829                    
PE04 -26663.314394  -8155.045201   9941.211492   -245.155325                    
PE05   2232.728709  19705.653799  21977.596844     87.664925                    
PE07  17221.757043  -8236.065088 -22612.303437   -153.602388                    
PE08  26684.826990   7919.373910 -10048.813100   6385.104312                    
PE09 -17088.591347   8270.606702  22720.937423   6493.245732                    
PE11 -13028.121332  18537.432362 -19056.830726   5714.086567                    
PE12 -16241.074146  -3737.185699 -24450.024100   6424.116619                    
PE13  12957.044217 -18403.537077  19231.727209    384.520477                    
PE15  16221.007459   3293.103796  24554.234492    916.420466                    
PE18 -10744.945745  19277.388922 -23793.311047   -599.474274                    
PE19 -19149.518742 -20125.820377 -10207.712849     -7.595553                    
PE21   9110.065510 -19904.692652  19917.674887   -525.218604                    
PE24 -24401.944563  16212.849399  -4160.784043   6173.367876                    
PE25  -9153.490694  19912.441480 -19896.534131   1858.481024                    
PE26   2392.786157 -29383.259284   2656.411839   4772.080842                    
PE27  24544.735733 -16131.268371   3702.751326    505.860005                    
PE30  25728.931732  -3020.543177 -14345.860435   5014.339412                    
PE31 -25552.552665   2899.592138  14658.507395    877.219740                    
PE33  -9993.544154 -23128.693448 -15512.375352    847.938909                    
PE36  -2073.865473  29417.684972  -2595.876908    733.722066                    
PG01  13853.282671 -21323.389614   6902.350300   -185.443553                    
PG02 -15912.403269   1513.274858 -20580.283556   -169.373680                    
PG03  18421.681865 -12624.985245 -14349.942874    186.987504                    
PG05 -26389.937747   1753.603166  -3561.461622      1.183068                    
PG06 -10800.634270 -11721.060772 -21191.410486    249.739146                    
PG07   5380.755901 -24924.999732   6745.601774     10.452962                    
PG08  15052.478063  -4691.120082  21445.805979   -137.023827                    
PG09  -4158.403696 -21802.232807 -14625.536698    441.611736                    
PG10  13158.611447  12056.736647  19790.315199     91.921188                    
PG11  10321.413632 -19355.406774  14605.422268   -640.953574                    
PG12 -20004.218952  10685.169600 -13882.177903    258.146097                    
PG13 -17920.547142  -4537.582543  18971.186133    -70.840036                    
PG14  18123.912393  17899.017805  -7535.993773    -87.480884                    
PG15 -14042.163571   7883.735332  20899.863840   -322.397628                    
PG16  26753.938786   -209.467008  -1777.016485    -27.016848                    
PG17 -14424.513702 -22337.144691   1419.773436     26.947875                    
PG18  16175.332180 -14448.945438  14754.789586     36.969259                    
PG19 -17780.945914 -18041.235373  -8115.334816   -339.676281                    
PG20   2974.024994  15563.410017  21205.575045    523.308969                    
PG21   -275.559877  24708.480057  10716.300051   -227.973904                    
PG22  23440.382513 -10195.114956  -6855.367193   -668.787006                    
PG23   6520.023830 -15312.788938 -20291.604239   -193.178872                    
PG24 -14850.521963  19000.255899  10601.276740    -63.688740                    
PG25  -8215.422770  15151.331109 -20342.621105   -736.047208                    
PG26  23329.943601   4808.825429 -11947.092243    155.355186                    
PG27  19525.672041   6560.260366  16839.152484    -91.090975                    
PG28 -10731.166683 -13400.100553  20850.730769    766.621125                    
PG29  -1486.016552  19279.672049 -18234.386101    243.979945                    
PG30  -3169.035593 -20941.065379  15931.188791    -72.529087                    
PG31  11768.450923  10381.033926 -21368.267012     50.543619                    
PG32  17341.129789  20135.790355  -1571.198927   -169.907273                    
PJ01 -27174.012226  25255.268036  25039.807049   -341.407188                    
PJ02 -34677.871382  23948.742479   5202.003465      0.475278                    
PJ03 -20820.721334  21317.615932 -25237.837651     -0.323315                    
PJ07 -25364.211425  33686.789732     51.763318     67.377933                    
PR01  -2367.334324 -12180.025326 -22285.776572     41.147286                    
PR02 -20448.428268 -12045.108447  -9243.118187    359.874588                    
PR03 -23718.748085  -4287.051694   8323.753972     -7.423662                    
PR04 -12720.923793   6191.979831  21238.378104    299.424059                    
PR05   4782.712259  12528.293965  21714.011541     24.500903                    
PR07  23643.444810   4111.924343  -8664.114280    -16.895031                    
PR08  13428.592616  -5731.923369 -20865.126577     18.549380                    
PR09  10645.881954   5374.529588 -22532.049626     60.283731                    
PR10  19512.727114  -7266.170506 -14706.073386     45.660815                    
PR11  18421.092566 -17363.391248   2969.080845    -60.464201                    
PR13  -9354.947820  -6193.529993  22884.779198    -21.546489                    
PR14 -19615.358815   7427.357039  14528.482574     37.108150                    
PR15 -18827.212672  17079.780484  -2057.853146    100.757721                    
PR16  -6709.476064  17116.502383 -17650.449005     10.609053                    
PR17 -11173.019342  -3447.739663 -22659.912643    213.948342                    
PR18  -6586.103970  14604.285152 -19853.544528     37.503371                    
PR20   8857.774584  20318.088043  12685.434303   -372.507848                    
PR21  11034.641276   2753.516881  22836.025131    -37.898559                    
PR22   5593.535162 -16643.154466  18454.204166    -10.615851                    
PR23  -3791.256180 -25191.643578   1208.231471    216.763370                    
PR24  -9692.988562 -18950.409597 -14059.513538   -178.485665                    
EOF                                     
